[{"OBJECT_NAME":"STARLINK-4681","OBJECT_ID":"2022-104G","EPOCH":"2026-03-09T17:53:31.231968","MEAN_MOTION":15.08841706,"ECCENTRICITY":0.00016104,"INCLINATION":53.2168,"RA_OF_ASC_NODE":243.8434,"ARG_OF_PERICENTER":86.2247,"MEAN_ANOMALY":273.8929,"EPHEMERIS_TYPE":0,"CLASSIFICATION_TYPE":"U","NORAD_CAT_ID":53594,"ELEMENT_SET_NO":999,"REV_AT_EPOCH":19609,"BSTAR":6.2831297e-5,"MEAN_MOTION_DOT":7.12e-6,"MEAN_MOTION_DDOT":0},{"OBJECT_NAME":"STRIX-2","OBJECT_ID":"2024-248A","EPOCH":"2026-03-09T23:00:54.819648","MEAN_MOTION":15.07630986,"ECCENTRICITY":0.00151844,"INCLINATION":97.6197,"RA_OF_ASC_NODE":25.3276,"ARG_OF_PERICENTER":319.5195,"MEAN_ANOMALY":40.4902,"EPHEMERIS_TYPE":0,"CLASSIFICATION_TYPE":"U","NORAD_CAT_ID":62406,"ELEMENT_SET_NO":999,"REV_AT_EPOCH":6663,"BSTAR":0.00066021351,"MEAN_MOTION_DOT":0.00010025,"MEAN_MOTION_DDOT":0}]
